NUSAT-45 (UZMASAT-1)    
1 62640U 25009AH  26177.14949050  .00010092  00000+0  34916-3 0  9996
2 62640  97.3598 258.2712 0000619 319.3930  40.7264 15.30077684 80295
FLOCK 4G-27             
1 62641U 25009AJ  26177.17346132  .00012515  00000+0  44051-3 0  9995
2 62641  97.3941 258.5146 0000664 251.3078 108.8090 15.29461020 80270
FLOCK 4G-29             
1 62642U 25009AK  26177.15966404  .00011590  00000+0  40715-3 0  9999
2 62642  97.4030 259.0890 0001537 237.9235 122.1857 15.29546010 80271
ANSER LEADER-S          
1 62644U 25009AM  26177.16529897  .00040775  00000+0  79079-3 0  9995
2 62644  97.4021 264.0155 0002991 227.2548 132.8450 15.47565285 80594
FLOCK 4G-22             
1 62645U 25009AN  26177.17677579  .00010815  00000+0  38162-3 0  9998
2 62645  97.4011 259.1461 0001065 225.6005 134.5148 15.29416437 80294
FLOCK 4G-25             
1 62646U 25009AP  26177.15335583  .00012374  00000+0  43326-3 0  9993
2 62646  97.4021 259.1930 0000546 222.9055 137.2143 15.29636323 80298
FLOCK 4G-23             
1 62647U 25009AQ  26177.18197411  .00047814  00000+0  14810-2 0  9995
2 62647  97.3941 258.8470 0002002 202.4256 157.6900 15.33294927 80303
LIME                    
1 62648U 25009AR  26177.17881575  .00012512  00000+0  41924-3 0  9990
2 62648  97.3955 259.4294 0000896  23.0754 337.0527 15.31064680 80341
AE1C                    
1 62649U 25009AS  26177.18470286  .00038786  00000+0  78656-3 0  9998
2 62649  97.4030 264.9509 0001267 218.4750 141.6409 15.46279816 80675
FLOCK 4G-34             
1 62650U 25009AT  26177.15498553  .00010640  00000+0  37540-3 0  9990
2 62650  97.3967 258.7010 0000460 221.9537 138.1668 15.29426475 80280
FLOCK 4G-21             
1 62651U 25009AU  26177.17271985  .00037564  00000+0  12281-2 0  9999
2 62651  97.3998 259.6372 0001313 254.7351 105.3746 15.31620619 80330
FLOCK 4G-31             
1 62652U 25009AV  26177.18244556  .00012149  00000+0  43080-3 0  9999
2 62652  97.3974 258.7043 0000210 139.6046 220.5210 15.29226995 80283
PAUSAT-1                
1 62653U 25009AW  26177.17581191  .00004487  00000+0  19024-3 0  9995
2 62653  97.3958 256.6956 0000441  28.5142 331.6119 15.23632421 80152
BRO-16                  
1 62654U 25009AX  26176.68036074  .00004489  00000+0  18828-3 0  9999
2 62654  97.4061 257.0602 0000236 245.9225 114.1987 15.24001701 80093
TRANSPORTER-12 OBJECT AY
1 62655U 25009AY  26177.17856176  .00028837  00000+0  68097-3 0  9994
2 62655  97.4038 263.7336 0001652 184.3681 175.7552 15.41819794 80584
TRANSPORTER-12 OBJECT AZ
1 62656U 25009AZ  26177.14619954  .00014349  00000+0  44927-3 0  9992
2 62656  97.3947 260.2337 0000487  68.0833 292.0461 15.33210903 80397
TRANSPORTER-12 OBJECT BA
1 62657U 25009BA  26177.19721103  .00009438  00000+0  33634-3 0  9994
2 62657  97.3950 258.8551 0000980 185.1546 174.9684 15.29132457 80301
TROLL                   
1 62658U 25009BB  26177.16977030  .00010778  00000+0  37025-3 0  9991
2 62658  97.3897 258.9739 0001300  51.9854 308.1504 15.30292160134829
FLOCK 4G-4              
1 62659U 25009BC  26177.18169752  .00042734  00000+0  14283-2 0  9995
2 62659  97.3954 258.4593 0002847 252.6968 107.3961 15.30874786137885
FLOCK 4G-6              
1 62660U 25009BD  26177.17670596  .00010673  00000+0  37391-3 0  9992
2 62660  97.3948 258.5459 0001734 307.2846  52.8236 15.29657085137875
FLOCK 4G-2              
1 62661U 25009BE  26177.17448856  .00011708  00000+0  40581-3 0  9990
2 62661  97.4012 259.1584 0002534 293.8652  66.2323 15.29979210137906
FLOCK 4G-5              
1 62663U 25009BG  26177.17676347  .00010170  00000+0  34645-3 0  9996
2 62663  97.4030 259.5393 0001899 265.8048  94.2976 15.30582618 80312
LYRA-1                  
1 62664U 25009BH  26177.16047142  .00012052  00000+0  57791-3 0  9999
2 62664  97.3985 251.5560 0009826 155.1475 205.0234 15.19002846 79787
JAY-D2                  
1 62665U 25009BJ  26177.18806370  .00003848  00000+0  16956-3 0  9999
2 62665  97.3892 255.5256 0002744 315.6399  44.4617 15.22406477 80101
FLOCK 4G-1              
1 62666U 25009BK  26177.15761139  .00012517  00000+0  43571-3 0  9996
2 62666  97.4028 259.1215 0002676 287.8284  72.2665 15.29821963 80285
FLOCK 4G-14             
1 62667U 25009BL  26177.18305581  .00011010  00000+0  38904-3 0  9996
2 62667  97.4029 258.9562 0002735 281.6421  78.4512 15.29367386 80272
JAY-C                   
1 62668U 25009BM  26177.18903061  .00003711  00000+0  16361-3 0  9996
2 62668  97.3964 255.9712 0003126 324.3365  35.7662 15.22406181137748
JAY-D1                  
1 62669U 25009BN  26177.18837437  .00003908  00000+0  17208-3 0  9999
2 62669  97.4034 256.4190 0003948 325.6478  34.4503 15.22422117137742
FLOCK 4G-10             
1 62670U 25009BP  26177.19526226  .00012118  00000+0  42640-3 0  9994
2 62670  97.3931 258.2879 0002849 309.8145  50.2844 15.29476023137912
SKYBEE-A01              
1 62671U 25009BQ  26177.16375410  .00002829  00000+0  13051-3 0  9991
2 62671  97.3990 255.5882 0003882 314.7607  45.3312 15.21047241137708
