OBJECT_NAME,OBJECT_ID,EPOCH,MEAN_MOTION,ECCENTRICITY,INCLINATION,RA_OF_ASC_NODE,ARG_OF_PERICENTER,MEAN_ANOMALY,EPHEMERIS_TYPE,CLASSIFICATION_TYPE,NORAD_CAT_ID,ELEMENT_SET_NO,REV_AT_EPOCH,BSTAR,MEAN_MOTION_DOT,MEAN_MOTION_DDOT
NUSAT-45 (UZMASAT-1),2025-009AH,2026-06-26T03:35:15.979200,15.30077684,.0000619,97.3598,258.2712,319.3930,40.7264,0,U,62640,999,8029,.34916E-3,.10092E-3,0
FLOCK 4G-27,2025-009AJ,2026-06-26T04:09:47.058048,15.29461020,.0000664,97.3941,258.5146,251.3078,108.8090,0,U,62641,999,8027,.44051E-3,.12515E-3,0
FLOCK 4G-29,2025-009AK,2026-06-26T03:49:54.973056,15.29546010,.0001537,97.4030,259.0890,237.9235,122.1857,0,U,62642,999,8027,.40715E-3,.1159E-3,0
ANSER LEADER-S,2025-009AM,2026-06-26T03:58:01.831008,15.47565285,.0002991,97.4021,264.0155,227.2548,132.8450,0,U,62644,999,8059,.79079E-3,.40775E-3,0
FLOCK 4G-22,2025-009AN,2026-06-26T04:14:33.428256,15.29416437,.0001065,97.4011,259.1461,225.6005,134.5148,0,U,62645,999,8029,.38162E-3,.10815E-3,0
FLOCK 4G-25,2025-009AP,2026-06-26T03:40:49.943712,15.29636323,.0000546,97.4021,259.1930,222.9055,137.2143,0,U,62646,999,8029,.43326E-3,.12374E-3,0
FLOCK 4G-23,2025-009AQ,2026-06-26T04:22:02.563104,15.33294927,.0002002,97.3941,258.8470,202.4256,157.6900,0,U,62647,999,8030,.1481E-2,.47814E-3,0
LIME,2025-009AR,2026-06-26T04:17:29.680800,15.31064680,.0000896,97.3955,259.4294,23.0754,337.0527,0,U,62648,999,8034,.41924E-3,.12512E-3,0
AE1C,2025-009AS,2026-06-26T04:25:58.327104,15.46279816,.0001267,97.4030,264.9509,218.4750,141.6409,0,U,62649,999,8067,.78656E-3,.38786E-3,0
FLOCK 4G-34,2025-009AT,2026-06-26T03:43:10.749792,15.29426475,.000046,97.3967,258.7010,221.9537,138.1668,0,U,62650,999,8028,.3754E-3,.1064E-3,0
FLOCK 4G-21,2025-009AU,2026-06-26T04:08:42.995040,15.31620619,.0001313,97.3998,259.6372,254.7351,105.3746,0,U,62651,999,8033,.12281E-2,.37564E-3,0
FLOCK 4G-31,2025-009AV,2026-06-26T04:22:43.296384,15.29226995,.000021,97.3974,258.7043,139.6046,220.5210,0,U,62652,999,8028,.4308E-3,.12149E-3,0
PAUSAT-1,2025-009AW,2026-06-26T04:13:10.149024,15.23632421,.0000441,97.3958,256.6956,28.5142,331.6119,0,U,62653,999,8015,.19024E-3,.4487E-4,0
BRO-16,2025-009AX,2026-06-25T16:19:43.167936,15.24001701,.0000236,97.4061,257.0602,245.9225,114.1987,0,U,62654,999,8009,.18828E-3,.4489E-4,0
TRANSPORTER-12 OBJECT AY,2025-009AY,2026-06-26T04:17:07.736064,15.41819794,.0001652,97.4038,263.7336,184.3681,175.7552,0,U,62655,999,8058,.68097E-3,.28837E-3,0
TRANSPORTER-12 OBJECT AZ,2025-009AZ,2026-06-26T03:30:31.640256,15.33210903,.0000487,97.3947,260.2337,68.0833,292.0461,0,U,62656,999,8039,.44927E-3,.14349E-3,0
TRANSPORTER-12 OBJECT BA,2025-009BA,2026-06-26T04:43:59.032992,15.29132457,.000098,97.3950,258.8551,185.1546,174.9684,0,U,62657,999,8030,.33634E-3,.9438E-4,0
TROLL,2025-009BB,2026-06-26T04:04:28.153920,15.30292160,.00013,97.3897,258.9739,51.9854,308.1504,0,U,62658,999,13482,.37025E-3,.10778E-3,0
FLOCK 4G-4,2025-009BC,2026-06-26T04:21:38.665728,15.30874786,.0002847,97.3954,258.4593,252.6968,107.3961,0,U,62659,999,13788,.14283E-2,.42734E-3,0
FLOCK 4G-6,2025-009BD,2026-06-26T04:14:27.394944,15.29657085,.0001734,97.3948,258.5459,307.2846,52.8236,0,U,62660,999,13787,.37391E-3,.10673E-3,0
FLOCK 4G-2,2025-009BE,2026-06-26T04:11:15.811584,15.29979210,.0002534,97.4012,259.1584,293.8652,66.2323,0,U,62661,999,13790,.40581E-3,.11708E-3,0
FLOCK 4G-5,2025-009BG,2026-06-26T04:14:32.363808,15.30582618,.0001899,97.4030,259.5393,265.8048,94.2976,0,U,62663,999,8031,.34645E-3,.1017E-3,0
LYRA-1,2025-009BH,2026-06-26T03:51:04.730688,15.19002846,.0009826,97.3985,251.5560,155.1475,205.0234,0,U,62664,999,7978,.57791E-3,.12052E-3,0
JAY-D2,2025-009BJ,2026-06-26T04:30:48.703680,15.22406477,.0002744,97.3892,255.5256,315.6399,44.4617,0,U,62665,999,8010,.16956E-3,.3848E-4,0
FLOCK 4G-1,2025-009BK,2026-06-26T03:46:57.624096,15.29821963,.0002676,97.4028,259.1215,287.8284,72.2665,0,U,62666,999,8028,.43571E-3,.12517E-3,0
FLOCK 4G-14,2025-009BL,2026-06-26T04:23:36.021984,15.29367386,.0002735,97.4029,258.9562,281.6421,78.4512,0,U,62667,999,8027,.38904E-3,.1101E-3,0
JAY-C,2025-009BM,2026-06-26T04:32:12.244704,15.22406181,.0003126,97.3964,255.9712,324.3365,35.7662,0,U,62668,999,13774,.16361E-3,.3711E-4,0
JAY-D1,2025-009BN,2026-06-26T04:31:15.545568,15.22422117,.0003948,97.4034,256.4190,325.6478,34.4503,0,U,62669,999,13774,.17208E-3,.3908E-4,0
FLOCK 4G-10,2025-009BP,2026-06-26T04:41:10.659264,15.29476023,.0002849,97.3931,258.2879,309.8145,50.2844,0,U,62670,999,13791,.4264E-3,.12118E-3,0
SKYBEE-A01,2025-009BQ,2026-06-26T03:55:48.354240,15.21047241,.0003882,97.3990,255.5882,314.7607,45.3312,0,U,62671,999,13770,.13051E-3,.2829E-4,0
